[Satellite]
VERSION=1.1
NAME=GSAT0211 (PRN E02)
NICKNAME=GSAT0211 (PRN E02)
TLE1=1 41549U 16030A   19315.69481646 -.00000021  00000-0  00000+0 0  9999
TLE2=2 41549  56.4706 287.9485 0004555 295.1586  64.7674  1.70474503 21571
STATUS=0
